#cP2022  3  3  0  0  0.00000000      96 ORBIT   JGS FIT  QSS
## 2199 345600.00000000   900.00000000 59641 0.0000000000000
+   28   G01G02G03G05G06G07G08G09G10G12G15G16G17G19G20G21G24
+        G25G26G27G29G30G31G32J01J02J03J07  0  0  0  0  0  0
+          0  0  0  0  0  0  0  0  0  0  0  0  0  0  0  0  0
+          0  0  0  0  0  0  0  0  0  0  0  0  0  0  0  0  0
+          0  0  0  0  0  0  0  0  0  0  0  0  0  0  0  0  0
++         2  2  2  2  2  2  3  2  2  2  2  2  2  2  2  2  2
++         2  2  2  2  2  2  2  5  5  5  9  0  0  0  0  0  0
++         0  0  0  0  0  0  0  0  0  0  0  0  0  0  0  0  0
++         0  0  0  0  0  0  0  0  0  0  0  0  0  0  0  0  0
++         0  0  0  0  0  0  0  0  0  0  0  0  0  0  0  0  0
%c M  cc QZS ccc cccc cccc cccc cccc ccccc ccccc ccccc ccccc
%c cc cc ccc ccc cccc cccc cccc cccc ccccc ccccc ccccc ccccc
%f  1.2500000  1.025000000  0.00000000000  0.000000000000000
%f  0.0000000  0.000000000  0.00000000000  0.000000000000000
%i    0    0    0    0      0      0      0      0         0
%i    0    0    0    0      0      0      0      0         0
/* PROGRAM: POCSEL v.785, DATE: 2022/03/06 05:16:52 UTC     
/* Comment line1                                            
/* Comment line2                                            
/*                                                          
*  2022  3  3 19 30  0.00000000
PG01  13892.832558 -22276.117970   2172.280948    417.702022 12 14 16 143       
PG02 -17031.097100   6721.920010 -18632.162849   -651.771761 10 16 10 143       
PG03  14624.430731 -12839.295875 -18127.282050   -147.048080 16 13 15 143       
PG05 -25558.065078   5421.336983   5048.581389    -73.392875  5 15 16 142       
PG06 -10536.737243 -10808.665658 -21776.259610    219.416833 15 15 12 143       
PG07   2451.648846 -23253.089518  12498.204066    313.979379 15  7 16 143       
PG08  13229.971577  -7366.521998  21801.037912    -58.405880 11 15  9 143       
PG09  -4622.338289 -23114.220885 -12275.211245   -351.607374 14 12 13 143       
PG10  15676.106788  11836.389487  18157.744507   -336.262238 17 11 12 143       
PG12 -18087.351064  10609.403785 -16487.675029   -179.421993 15 14 16 143       
PG15 -12369.671384   9630.945527  21036.597219    -79.564017 13 15  8 142       
PG16  26753.439589    527.513933   1473.626430   -476.375951 10 15 16 143       
PG17 -13542.538712 -22717.365254  -1695.895606    582.500740 12  8 14 143       
PG19 -16458.705761 -18530.166552 -10062.824048    126.267621 11 12 15 143       
PG20 -25929.866668   1245.690052  -4961.075650    516.457106 12 15 16 143       
PG21  16926.340011 -15728.708340  13157.948675    158.897928  6 16 14 143       
PG24 -14564.203938  20796.077333   6745.588832    271.007911 11 15 16 142       
PG25  -4494.030020  15310.968246 -21480.833484    293.333598 17 10 13 143       
PG26  23896.144969   5722.371645 -10554.435598    187.867554 15 14 15 143       
PG27  18099.906965   4923.349400  18761.509613    141.247459  5 15 13 143       
PG29   1193.346582  22520.006345 -14033.947067   -487.018078 15 14 14 143       
PG30  -4561.959879 -18976.624456  17975.448526   -516.677204 15 13 15 143       
PG31  12909.466736   8415.902548 -21743.793900   -167.290350 15 16 10 143       
PG32  16953.361448  19844.276316  -5304.353391    -77.901546 12 11 15 143       
PJ01 -27376.286362  19958.137338  29999.618780    218.326141 13 18 14 143       
PJ02 -35323.528851  17219.035250 -10709.353369     -1.715434 12 18 17 143       
PJ03 -20513.970507  29108.723017 -17941.830065     -0.792278 13 17 11 143       
PJ07 -25398.796935  33663.556253     24.013810      0.040003 27 26  9 143       
*  2022  3  3 19 45  0.00000000
PG01  13873.913051 -21782.399277   5060.893159    417.693678 12 15 16 143       
PG02 -16272.092532   4517.897357 -19877.740117   -651.772186 10 16  8 143       
PG03  16584.967970 -12826.734910 -16341.475266   -147.063624 15 13 16 143       
PG05 -26015.049106   5222.828826   2244.673241    -73.394424  3 15 16 143       
PG06  -9397.746536 -12991.777016 -21089.276545    219.428080 15 15 13 143       
PG07   3252.036533 -24257.599017  10053.513978    313.981484 15  4 16 143       
PG08  14641.174303  -5325.833334  21522.488587    -58.406851 11 15 10 143       
PG09  -3574.971842 -21985.141229 -14510.972980   -351.605647 14 12 12 143       
PG10  13565.008052  12077.316504  19624.781024   -336.272145 17 11 11 143       
PG12 -19815.994454  10435.138098 -14441.060270   -179.427211 15 14 16 143       
PG15 -13990.021890   7739.388052  20834.208105    -79.561637 13 15 10 142       
PG16  26783.567640    722.839882  -1372.463795   -476.380051 11 15 16 143       
PG17 -13403.444920 -22885.741832   1200.719618    582.505245 13  6 14 143       
PG19 -16754.559547 -19459.648032  -7417.401009    126.271895 12 12 15 143       
PG20 -25286.682166    779.289897  -7666.180011    516.456941 13 15 16 143       
PG21  16555.509969 -14203.463027  15353.154518    158.898350  5 16 13 143       
PG24 -14519.835832  19767.508011   9359.350311    271.005340 11 16 15 142       
PG25  -6856.449426  15402.773206 -20744.407293    293.338366 17 11 14 143       
PG26  22610.045916   6122.147777 -12892.467182    187.870414 16 15 15 143       
PG27  19162.298467   6707.915651  17133.664831    141.260120  4 15 14 143       
PG29    223.169165  21095.502481 -16149.321106   -487.021756 15 14 13 143       
PG30  -3478.454293 -20627.586554  16292.387365   -516.679068 15 13 15 143       
PG31  11733.411538  10564.521603 -21427.282554   -167.292347 15 16 12 143       
PG32  17009.138998  20362.219427  -2510.579525    -77.907942 13 11 15 143       
PJ01 -27767.989865  19870.671009  29632.830308    218.307956 14 18 15 143       
PJ02 -35704.247895  17868.722118  -8981.719230     -1.715638 13 18 17 143       
PJ03 -20189.969847  28318.126675 -19210.480243     -0.792332 13 17 11 143       
PJ07 -25398.037953  33663.765791     27.119091      0.040097 27 26 10 143       
*  2022  3  3 20  0  0.00000000
PG01  13753.600625 -20987.395904   7859.942233    417.685408 11 15 16 143       
PG02 -15587.189946   2156.276627 -20762.196484   -651.772561 10 17  5 143       
PG03  18328.315462 -12892.345783 -14275.164452   -147.079105 15 14 16 143       
PG05 -26166.951870   4997.485555   -597.588911    -73.395233  7 15 16 143       
PG06  -8420.999737 -15144.302610 -20036.641395    219.439382 15 15 14 143       
PG07   3892.356600 -25038.341733   7433.850831    313.983282 15  5 16 143       
PG08  16123.675432  -3406.561502  20873.997816    -58.408764 11 15 11 143       
PG09  -2324.442734 -20723.860333 -16497.674802   -351.603815 15 13 12 143       
PG10  11323.714948  12452.329448  20760.849193   -336.281969 17 12  9 143       
PG12 -21309.514235  10339.512219 -12148.378211   -179.432117 14 15 17 143       
PG15 -15662.564048   5959.601925  20261.001953    -79.558461 13 15 11 143       
PG16  26507.187814    925.391078  -4195.654653   -476.384181 13 15 16 143       
PG17 -13095.299047 -22787.103220   4076.685364    582.509680 13  5 14 143       
PG19 -16943.147708 -20111.945747  -4646.724364    126.276585 12 11 15 143       
PG20 -24378.993425    200.686831 -10237.462833    516.457155 14 15 15 143       
PG21  16189.846665 -12449.245311  17287.575804    158.898589  5 17 13 143       
PG24 -14432.194956  18462.582282  11806.296703    271.002835 11 16 15 142       
PG25  -9113.196799  15604.139203 -19657.846403    293.343213 17 11 15 143       
PG26  21098.887662   6628.698846 -15012.994268    187.873336 16 15 14 143       
PG27  20197.015712   8268.048522  15211.145361    141.272815  4 15 14 143       
PG29   -945.803319  19539.200335 -17987.037045   -487.026063 16 15 12 143       
PG30  -2557.713345 -22141.776507  14327.526370   -516.680872 15 12 16 143       
PG31  10690.094454  12723.559913 -20744.388845   -167.293421 15 16 13 143       
PG32  16899.168429  20623.974427    325.985794    -77.914275 14 10 15 143       
PJ01 -28189.225035  19852.825115  29162.529845    218.289877 14 18 15 143       
PJ02 -35982.772595  18554.494189  -7211.765022     -1.715678 13 18 17 143       
PJ03 -19956.856902  27467.110986 -20380.266879     -0.792235 13 18 10 143       
PJ07 -25397.291465  33663.935813     30.108653      0.040250 27 26 10 143       
EOF
